[{"OBJECT_NAME":"ONEWEB-0211","OBJECT_ID":"2021-045A","EPOCH":"2026-01-16T05:23:12.299424","MEAN_MOTION":13.16139801,"ECCENTRICITY":0.00011476,"INCLINATION":87.9014,"RA_OF_ASC_NODE":289.4446,"ARG_OF_PERICENTER":70.9287,"MEAN_ANOMALY":289.1968,"EPHEMERIS_TYPE":0,"CLASSIFICATION_TYPE":"U","NORAD_CAT_ID":48767,"ELEMENT_SET_NO":999,"REV_AT_EPOCH":22445,"BSTAR":4.4627887e-5,"MEAN_MOTION_DOT":3.0e-7,"MEAN_MOTION_DDOT":0},{"OBJECT_NAME":"ONEWEB-0223","OBJECT_ID":"2021-045B","EPOCH":"2026-01-16T05:32:14.914752","MEAN_MOTION":13.15548141,"ECCENTRICITY":0.00012891,"INCLINATION":87.9015,"RA_OF_ASC_NODE":289.5135,"ARG_OF_PERICENTER":60.3203,"MEAN_ANOMALY":299.8056,"EPHEMERIS_TYPE":0,"CLASSIFICATION_TYPE":"U","NORAD_CAT_ID":48768,"ELEMENT_SET_NO":999,"REV_AT_EPOCH":22442,"BSTAR":-0.00023204875,"MEAN_MOTION_DOT":-7.5e-7,"MEAN_MOTION_DDOT":0},{"OBJECT_NAME":"ONEWEB-0230","OBJECT_ID":"2021-045C","EPOCH":"2026-01-16T04:51:10.360800","MEAN_MOTION":13.1554897,"ECCENTRICITY":0.00017644,"INCLINATION":87.9004,"RA_OF_ASC_NODE":289.5473,"ARG_OF_PERICENTER":73.4979,"MEAN_ANOMALY":286.6345,"EPHEMERIS_TYPE":0,"CLASSIFICATION_TYPE":"U","NORAD_CAT_ID":48769,"ELEMENT_SET_NO":999,"REV_AT_EPOCH":22468,"BSTAR":0.00054993663,"MEAN_MOTION_DOT":2.2e-6,"MEAN_MOTION_DDOT":0},{"OBJECT_NAME":"ONEWEB-0237","OBJECT_ID":"2021-045D","EPOCH":"2026-01-15T19:27:35.210016","MEAN_MOTION":13.15549202,"ECCENTRICITY":0.00014913,"INCLINATION":87.9008,"RA_OF_ASC_NODE":289.6264,"ARG_OF_PERICENTER":67.2641,"MEAN_ANOMALY":292.8647,"EPHEMERIS_TYPE":0,"CLASSIFICATION_TYPE":"U","NORAD_CAT_ID":48770,"ELEMENT_SET_NO":999,"REV_AT_EPOCH":22435,"BSTAR":0.00026387244,"MEAN_MOTION_DOT":1.12e-6,"MEAN_MOTION_DDOT":0},{"OBJECT_NAME":"ONEWEB-0235","OBJECT_ID":"2021-045E","EPOCH":"2026-01-16T05:48:12.959424","MEAN_MOTION":13.15548935,"ECCENTRICITY":0.00013263,"INCLINATION":87.9013,"RA_OF_ASC_NODE":289.5131,"ARG_OF_PERICENTER":60.6199,"MEAN_ANOMALY":299.5064,"EPHEMERIS_TYPE":0,"CLASSIFICATION_TYPE":"U","NORAD_CAT_ID":48771,"ELEMENT_SET_NO":999,"REV_AT_EPOCH":22440,"BSTAR":-0.00036559906,"MEAN_MOTION_DOT":-1.25e-6,"MEAN_MOTION_DDOT":0},{"OBJECT_NAME":"ONEWEB-0242","OBJECT_ID":"2021-045F","EPOCH":"2026-01-16T05:39:05.436576","MEAN_MOTION":13.15549045,"ECCENTRICITY":0.0001649,"INCLINATION":87.902,"RA_OF_ASC_NODE":289.5086,"ARG_OF_PERICENTER":68.7868,"MEAN_ANOMALY":291.3439,"EPHEMERIS_TYPE":0,"CLASSIFICATION_TYPE":"U","NORAD_CAT_ID":48772,"ELEMENT_SET_NO":999,"REV_AT_EPOCH":22444,"BSTAR":-0.00022288463,"MEAN_MOTION_DOT":-7.1e-7,"MEAN_MOTION_DDOT":0},{"OBJECT_NAME":"ONEWEB-0241","OBJECT_ID":"2021-045G","EPOCH":"2026-01-16T05:20:50.341632","MEAN_MOTION":13.15549952,"ECCENTRICITY":0.00011717,"INCLINATION":87.9008,"RA_OF_ASC_NODE":289.5455,"ARG_OF_PERICENTER":72.7604,"MEAN_ANOMALY":287.3654,"EPHEMERIS_TYPE":0,"CLASSIFICATION_TYPE":"U","NORAD_CAT_ID":48773,"ELEMENT_SET_NO":999,"REV_AT_EPOCH":22435,"BSTAR":1.5890912e-5,"MEAN_MOTION_DOT":1.9e-7,"MEAN_MOTION_DDOT":0},{"OBJECT_NAME":"ONEWEB-0243","OBJECT_ID":"2021-045H","EPOCH":"2026-01-16T04:16:55.437888","MEAN_MOTION":13.15552717,"ECCENTRICITY":0.00015359,"INCLINATION":87.9007,"RA_OF_ASC_NODE":289.5646,"ARG_OF_PERICENTER":59.5227,"MEAN_ANOMALY":300.6055,"EPHEMERIS_TYPE":0,"CLASSIFICATION_TYPE":"U","NORAD_CAT_ID":48774,"ELEMENT_SET_NO":999,"REV_AT_EPOCH":22437,"BSTAR":-0.00010630503,"MEAN_MOTION_DOT":-2.7e-7,"MEAN_MOTION_DDOT":0},{"OBJECT_NAME":"ONEWEB-0222","OBJECT_ID":"2021-045J","EPOCH":"2026-01-16T05:42:29.258496","MEAN_MOTION":13.15547391,"ECCENTRICITY":0.00014931,"INCLINATION":87.9016,"RA_OF_ASC_NODE":289.5089,"ARG_OF_PERICENTER":70.501,"MEAN_ANOMALY":289.6281,"EPHEMERIS_TYPE":0,"CLASSIFICATION_TYPE":"U","NORAD_CAT_ID":48775,"ELEMENT_SET_NO":999,"REV_AT_EPOCH":22442,"BSTAR":-0.00068009751,"MEAN_MOTION_DOT":-2.43e-6,"MEAN_MOTION_DDOT":0},{"OBJECT_NAME":"ONEWEB-0244","OBJECT_ID":"2021-045K","EPOCH":"2026-01-16T04:30:38.172384","MEAN_MOTION":13.15549205,"ECCENTRICITY":0.00015368,"INCLINATION":87.9018,"RA_OF_ASC_NODE":289.5074,"ARG_OF_PERICENTER":69.7256,"MEAN_ANOMALY":290.4039,"EPHEMERIS_TYPE":0,"CLASSIFICATION_TYPE":"U","NORAD_CAT_ID":48776,"ELEMENT_SET_NO":999,"REV_AT_EPOCH":22498,"BSTAR":0.00021179033,"MEAN_MOTION_DOT":9.3e-7,"MEAN_MOTION_DDOT":0},{"OBJECT_NAME":"ONEWEB-0247","OBJECT_ID":"2021-045L","EPOCH":"2026-01-15T19:18:26.760960","MEAN_MOTION":13.15547671,"ECCENTRICITY":0.00015226,"INCLINATION":87.9003,"RA_OF_ASC_NODE":289.635,"ARG_OF_PERICENTER":42.2573,"MEAN_ANOMALY":317.8674,"EPHEMERIS_TYPE":0,"CLASSIFICATION_TYPE":"U","NORAD_CAT_ID":48777,"ELEMENT_SET_NO":999,"REV_AT_EPOCH":22437,"BSTAR":8.0001161e-5,"MEAN_MOTION_DOT":4.3e-7,"MEAN_MOTION_DDOT":0},{"OBJECT_NAME":"ONEWEB-0245","OBJECT_ID":"2021-045M","EPOCH":"2026-01-16T04:19:14.058048","MEAN_MOTION":13.15549559,"ECCENTRICITY":0.00013652,"INCLINATION":87.9012,"RA_OF_ASC_NODE":289.5263,"ARG_OF_PERICENTER":76.7365,"MEAN_ANOMALY":283.3918,"EPHEMERIS_TYPE":0,"CLASSIFICATION_TYPE":"U","NORAD_CAT_ID":48778,"ELEMENT_SET_NO":999,"REV_AT_EPOCH":22439,"BSTAR":1.3389367e-5,"MEAN_MOTION_DOT":1.8e-7,"MEAN_MOTION_DDOT":0},{"OBJECT_NAME":"ONEWEB-0229","OBJECT_ID":"2021-045N","EPOCH":"2026-01-16T04:12:23.017824","MEAN_MOTION":13.15549463,"ECCENTRICITY":0.00016321,"INCLINATION":87.9011,"RA_OF_ASC_NODE":289.5252,"ARG_OF_PERICENTER":69.2603,"MEAN_ANOMALY":290.8702,"EPHEMERIS_TYPE":0,"CLASSIFICATION_TYPE":"U","NORAD_CAT_ID":48779,"ELEMENT_SET_NO":999,"REV_AT_EPOCH":22442,"BSTAR":-0.00017593647,"MEAN_MOTION_DOT":-5.3e-7,"MEAN_MOTION_DDOT":0},{"OBJECT_NAME":"ONEWEB-0228","OBJECT_ID":"2021-045P","EPOCH":"2026-01-16T05:00:28.802016","MEAN_MOTION":13.15550753,"ECCENTRICITY":0.00015124,"INCLINATION":87.9012,"RA_OF_ASC_NODE":289.5052,"ARG_OF_PERICENTER":69.7503,"MEAN_ANOMALY":290.379,"EPHEMERIS_TYPE":0,"CLASSIFICATION_TYPE":"U","NORAD_CAT_ID":48780,"ELEMENT_SET_NO":999,"REV_AT_EPOCH":22434,"BSTAR":0.0004084902,"MEAN_MOTION_DOT":1.67e-6,"MEAN_MOTION_DDOT":0},{"OBJECT_NAME":"ONEWEB-0232","OBJECT_ID":"2021-045Q","EPOCH":"2026-01-15T19:16:09.806592","MEAN_MOTION":13.15549997,"ECCENTRICITY":0.00015668,"INCLINATION":87.9021,"RA_OF_ASC_NODE":289.581,"ARG_OF_PERICENTER":73.8234,"MEAN_ANOMALY":286.3069,"EPHEMERIS_TYPE":0,"CLASSIFICATION_TYPE":"U","NORAD_CAT_ID":48781,"ELEMENT_SET_NO":999,"REV_AT_EPOCH":22461,"BSTAR":-1.1897686e-5,"MEAN_MOTION_DOT":8.0e-8,"MEAN_MOTION_DDOT":0},{"OBJECT_NAME":"ONEWEB-0231","OBJECT_ID":"2021-045R","EPOCH":"2026-01-16T05:41:21.484608","MEAN_MOTION":13.15548533,"ECCENTRICITY":0.0001515,"INCLINATION":87.9006,"RA_OF_ASC_NODE":289.5306,"ARG_OF_PERICENTER":66.6164,"MEAN_ANOMALY":293.5125,"EPHEMERIS_TYPE":0,"CLASSIFICATION_TYPE":"U","NORAD_CAT_ID":48782,"ELEMENT_SET_NO":999,"REV_AT_EPOCH":22436,"BSTAR":-0.00025869912,"MEAN_MOTION_DOT":-8.5e-7,"MEAN_MOTION_DDOT":0}]
