ONEWEB-0211             
1 48767U 21045A   26016.22444791  .00000030  00000+0  44628-4 0  9992
2 48767  87.9014 289.4446 0001147  70.9287 289.1968 13.16139801224459
ONEWEB-0223             
1 48768U 21045B   26016.23072818 -.00000075  00000+0 -23205-3 0  9999
2 48768  87.9015 289.5135 0001289  60.3203 299.8056 13.15548141224428
ONEWEB-0230             
1 48769U 21045C   26016.20220325  .00000220  00000+0  54994-3 0  9994
2 48769  87.9004 289.5473 0001764  73.4979 286.6345 13.15548970224688
ONEWEB-0237             
1 48770U 21045D   26015.81082419  .00000112  00000+0  26387-3 0  9997
2 48770  87.9008 289.6264 0001491  67.2641 292.8647 13.15549202224354
ONEWEB-0235             
1 48771U 21045E   26016.24181666 -.00000125  00000+0 -36560-3 0  9990
2 48771  87.9013 289.5131 0001326  60.6199 299.5064 13.15548935224400
ONEWEB-0242             
1 48772U 21045F   26016.23547959 -.00000071  00000+0 -22288-3 0  9993
2 48772  87.9020 289.5086 0001649  68.7868 291.3439 13.15549045224441
ONEWEB-0241             
1 48773U 21045G   26016.22280488  .00000019  00000+0  15891-4 0  9997
2 48773  87.9008 289.5455 0001171  72.7604 287.3654 13.15549952224352
ONEWEB-0243             
1 48774U 21045H   26016.17841942 -.00000027  00000+0 -10631-3 0  9997
2 48774  87.9007 289.5646 0001535  59.5227 300.6055 13.15552717224371
ONEWEB-0222             
1 48775U 21045J   26016.23783864 -.00000243  00000+0 -68010-3 0  9997
2 48775  87.9016 289.5089 0001493  70.5010 289.6281 13.15547391224424
ONEWEB-0244             
1 48776U 21045K   26016.18794181  .00000093  00000+0  21179-3 0  9992
2 48776  87.9018 289.5074 0001536  69.7256 290.4039 13.15549205224989
ONEWEB-0247             
1 48777U 21045L   26015.80447640  .00000043  00000+0  80001-4 0  9991
2 48777  87.9003 289.6350 0001522  42.2573 317.8674 13.15547671224372
ONEWEB-0245             
1 48778U 21045M   26016.18002382  .00000018  00000+0  13389-4 0  9991
2 48778  87.9012 289.5263 0001365  76.7365 283.3918 13.15549559224398
ONEWEB-0229             
1 48779U 21045N   26016.17526641 -.00000053  00000+0 -17594-3 0  9992
2 48779  87.9011 289.5252 0001632  69.2603 290.8702 13.15549463224427
ONEWEB-0228             
1 48780U 21045P   26016.20866669  .00000167  00000+0  40849-3 0  9998
2 48780  87.9012 289.5052 0001512  69.7503 290.3790 13.15550753224346
ONEWEB-0232             
1 48781U 21045Q   26015.80289128  .00000008  00000+0 -11898-4 0  9991
2 48781  87.9021 289.5810 0001566  73.8234 286.3069 13.15549997224617
ONEWEB-0231             
1 48782U 21045R   26016.23705422 -.00000085  00000+0 -25870-3 0  9990
2 48782  87.9006 289.5306 0001515  66.6164 293.5125 13.15548533224367
